     2.100          NAVIGATION                              RINEX VERSION / TYPE
fic2rin                                 10/08/2016 00:21:06 PGM / RUN BY / DATE
                                                            END OF HEADER
10 16 10  7 10  0  0.0 -.105521176010D-03 -.352429196937D-11  .000000000000D+00
     .110000000000D+02 -.575000000000D+01  .464590780642D-08 -.272126271252D+01
    -.288709998131D-06  .177593308035D-02  .711902976036D-05  .515367275238D+04
     .468000000000D+06  .931322574615D-08  .277966103442D+01  .223517417908D-07
     .959917082457D+00  .241687500000D+03 -.289079166482D+01 -.801747681723D-08
    -.657170230921D-10  .100000000000D+01  .191700000000D+04  .000000000000D+00
     .240000000000D+01  .000000000000D+00  .232830643654D-08  .110000000000D+02
     .460806000000D+06  .400000000000D+01
11 16 10  7 10  0  0.0 -.666296109557D-03 -.113686837722D-11  .000000000000D+00
     .790000000000D+02 -.105625000000D+02  .605096633275D-08 -.118905220619D+01
    -.394880771637D-06  .168141339673D-01  .818818807602D-05  .515368237305D+04
     .468000000000D+06 -.245869159698D-06  .135513547001D+01  .318512320518D-06
     .897837472043D+00  .189468750000D+03  .158378275738D+01 -.892751472397D-08
     .137148569931D-09  .100000000000D+01  .191700000000D+04  .000000000000D+00
     .340000000000D+01  .000000000000D+00 -.121071934700D-07  .790000000000D+02
     .460806000000D+06  .400000000000D+01
12 16 10  7 10  0  0.0  .389123801142D-03  .227373675443D-12  .000000000000D+00
     .590000000000D+02 -.242187500000D+02  .415231581776D-08 -.188178756142D+01
    -.123493373394D-05  .604464369826D-02  .439956784248D-05  .515364852524D+04
     .468000000000D+06  .707805156708D-07 -.303871933554D+00 -.316649675369D-07
     .990277451454D+00  .310187500000D+03  .786433134051D+00 -.799319009131D-08
     .489306095849D-10  .100000000000D+01  .191700000000D+04  .000000000000D+00
     .240000000000D+01  .000000000000D+00 -.125728547573D-07  .590000000000D+02
     .460806000000D+06  .400000000000D+01
14 16 10  7 10  0  0.0 -.388524495065D-04 -.193267624127D-11  .000000000000D+00
     .740000000000D+02  .230937500000D+02  .432946605392D-08  .105767394546D+01
     .121258199215D-05  .874922599178D-02  .951811671257D-05  .515359406090D+04
     .468000000000D+06 -.150874257088D-06 -.237694728661D+01 -.521540641785D-07
     .963396595072D+00  .196406250000D+03 -.194254119313D+01 -.804212070089D-08
    -.251796202608D-09  .100000000000D+01  .191700000000D+04  .000000000000D+00
     .240000000000D+01  .000000000000D+00 -.931322574615D-08  .740000000000D+02
     .460806000000D+06  .400000000000D+01
16 16 10  7 10  0  0.0  .995490700006D-05  .181898940355D-11  .000000000000D+00
     .110000000000D+02 -.191250000000D+02  .408909889881D-08  .244348930041D+01
    -.964850187302D-06  .869627553038D-02  .472925603390D-05  .515357548141D+04
     .468000000000D+06 -.186264514923D-06 -.285070838093D+00 -.167638063431D-07
     .990782352759D+00  .305312500000D+03  .385513722560D+00 -.787925677410D-08
    -.142863093678D-11  .100000000000D+01  .191700000000D+04  .000000000000D+00
     .240000000000D+01  .000000000000D+00 -.107102096081D-07  .110000000000D+02
     .460806000000D+06  .400000000000D+01
17 16 10  7 10  0  0.0 -.201391056180D-03  .568434188608D-12  .000000000000D+00
     .280000000000D+02 -.561875000000D+02  .412445751450D-08  .149309570493D+01
    -.306405127048D-05  .112548579928D-01  .895187258720D-05  .515375828552D+04
     .468000000000D+06 -.268220901489D-06  .734374195027D+00 -.156462192535D-06
     .977781777221D+00  .219937500000D+03 -.192213253210D+01 -.790890086604D-08
     .535736601294D-11  .100000000000D+01  .191700000000D+04  .000000000000D+00
     .240000000000D+01  .000000000000D+00 -.107102096081D-07  .280000000000D+02
     .460806000000D+06  .400000000000D+01
18 16 10  7 10  0  0.0  .564730260521D-03  .352429196937D-11  .000000000000D+00
     .660000000000D+02 -.953125000000D+01  .531022119203D-08  .306535829842D+01
    -.447034835815D-06  .172515024897D-01  .649131834507D-05  .515371551514D+04
     .468000000000D+06  .162050127983D-06  .274591606693D+01 -.130385160446D-06
     .925402470842D+00  .231281250000D+03 -.185720212884D+01 -.810783772399D-08
    -.889322758148D-10  .100000000000D+01  .191700000000D+04  .000000000000D+00
     .240000000000D+01  .000000000000D+00 -.111758708954D-07  .660000000000D+02
     .460806000000D+06  .400000000000D+01
20 16 10  7 10  0  0.0  .439540017396D-03  .193267624127D-11  .000000000000D+00
     .860000000000D+02 -.862500000000D+01  .547201364562D-08  .630016582742D+00
    -.353902578354D-06  .470273056999D-02  .697746872902D-05  .515358442688D+04
     .468000000000D+06 -.651925802231D-07  .269430358417D+01 -.122934579849D-06
     .926671395743D+00  .232781250000D+03  .145590576432D+01 -.851071164816D-08
    -.162149611325D-09  .100000000000D+01  .191700000000D+04  .000000000000D+00
     .240000000000D+01  .000000000000D+00 -.838190317154D-08  .860000000000D+02
     .460806000000D+06  .400000000000D+01
21 16 10  7 10  0  0.0 -.532616861165D-03 -.227373675443D-12  .000000000000D+00
     .290000000000D+02 -.117812500000D+02  .489127516982D-08 -.224779913477D+01
    -.597909092903D-06  .233385188039D-01  .793859362602D-05  .515381457138D+04
     .468000000000D+06  .335276126862D-06  .170423565916D+01  .484287738800D-07
     .937171891097D+00  .207593750000D+03 -.175320480548D+01 -.781246827781D-08
     .336442585613D-09  .100000000000D+01  .191700000000D+04  .000000000000D+00
     .240000000000D+01  .000000000000D+00 -.977888703346D-08  .290000000000D+02
     .460806000000D+06  .400000000000D+01
22 16 10  7 10  0  0.0  .225280411541D-03 -.103455022327D-10  .000000000000D+00
     .720000000000D+02 -.111562500000D+02  .558594696283D-08  .995970059225D+00
    -.583007931709D-06  .739187723957D-02  .679306685925D-05  .515370417213D+04
     .468000000000D+06 -.117346644402D-06  .274628434924D+01 -.316649675369D-07
     .923351487490D+00  .233937500000D+03 -.186031365026D+01 -.864964600676D-08
    -.189650756858D-09  .100000000000D+01  .191700000000D+04  .000000000000D+00
     .240000000000D+01  .000000000000D+00 -.176951289177D-07  .720000000000D+02
     .460806000000D+06  .400000000000D+01
23 16 10  7 10  0  0.0 -.192521605641D-03 -.125055521494D-11  .000000000000D+00
     .230000000000D+02  .216562500000D+02  .476626996285D-08  .238507864318D+00
     .126473605633D-05  .111365298508D-01  .916607677937D-05  .515360626221D+04
     .468000000000D+06  .353902578354D-07 -.245777792704D+01  .268220901489D-06
     .945584797962D+00  .195875000000D+03 -.252640297380D+01 -.825248660633D-08
    -.149291932894D-09  .100000000000D+01  .191700000000D+04  .000000000000D+00
     .240000000000D+01  .000000000000D+00 -.200234353542D-07  .230000000000D+02
     .460806000000D+06  .400000000000D+01
24 16 10  7 10  0  0.0 -.242320820689D-04 -.568434188608D-12  .000000000000D+00
     .730000000000D+02  .750312500000D+02  .485413076546D-08 -.307159664924D+00
     .393390655518D-05  .475468032528D-02  .639818608761D-05  .515372807503D+04
     .468000000000D+06  .838190317154D-07 -.143249063548D+01  .298023223877D-07
     .947700985036D+00  .250406250000D+03  .391207957096D+00 -.839213528041D-08
     .143934566881D-09  .100000000000D+01  .191700000000D+04  .000000000000D+00
     .240000000000D+01  .000000000000D+00  .232830643654D-08  .730000000000D+02
     .460806000000D+06  .400000000000D+01
25 16 10  7 10  0  0.0 -.259201042354D-03 -.693489710102D-11  .000000000000D+00
     .790000000000D+02 -.156875000000D+02  .438482550273D-08 -.241801316576D+01
    -.873580574989D-06  .561068055686D-02  .412203371525D-05  .515368896675D+04
     .468000000000D+06  .651925802231D-07 -.356339938120D+00 -.894069671631D-07
     .978366404636D+00  .309312500000D+03  .779051426436D+00 -.812140971788D-08
     .457161899771D-10  .100000000000D+01  .191700000000D+04  .000000000000D+00
     .240000000000D+01  .000000000000D+00  .558793544769D-08  .790000000000D+02
     .460806000000D+06  .400000000000D+01
26 16 10  7 10  0  0.0 -.482713803649D-03 -.636646291241D-11  .000000000000D+00
     .110000000000D+02 -.100625000000D+02  .480984320642D-08 -.282873672067D+01
    -.409781932831D-06  .104354240466D-02  .417232513428D-05  .515358859634D+04
     .468000000000D+06 -.800937414169D-07 -.367650833036D+00  .335276126862D-07
     .960257847279D+00  .299812500000D+03 -.139044526391D+00 -.832106089130D-08
     .160720980388D-10  .100000000000D+01  .191700000000D+04  .000000000000D+00
     .240000000000D+01  .000000000000D+00  .698491930962D-08  .110000000000D+02
     .460806000000D+06  .400000000000D+01
28 16 10  7 10  0  0.0  .557492487133D-03  .272848410532D-11  .000000000000D+00
     .780000000000D+02 -.338437500000D+02  .394695012060D-08  .237243103906D+01
    -.186264514923D-05  .199419162236D-01  .434555113316D-05  .515363420105D+04
     .468000000000D+06  .232830643654D-06 -.280263869224D+00 -.167638063431D-06
     .989525998713D+00  .307968750000D+03 -.160999163258D+01 -.761353141986D-08
    -.148577617426D-09  .100000000000D+01  .191700000000D+04  .000000000000D+00
     .340000000000D+01  .000000000000D+00 -.107102096081D-07  .780000000000D+02
     .460806000000D+06  .400000000000D+01
29 16 10  7 10  0  0.0  .648528337479D-03 -.136424205266D-11  .000000000000D+00
     .420000000000D+02 -.709062500000D+02  .409017037201D-08 -.276285095437D+01
    -.375695526600D-05  .510612851940D-03  .856071710587D-05  .515374188042D+04
     .468000000000D+06 -.596046447754D-07  .744237157996D+00 -.186264514923D-07
     .978797555853D+00  .220562500000D+03  .900394756713D-01 -.784639826255D-08
    -.717887045734D-10  .100000000000D+01  .191700000000D+04  .000000000000D+00
     .240000000000D+01  .000000000000D+00 -.102445483208D-07  .420000000000D+02
     .460806000000D+06  .400000000000D+01
